     3.02           N: GNSS NAV DATA    M: Mixed            RINEX VERSION / TYPE
CHC                 CHC                 20250609 013017 UTC PGM / RUN BY / DATE 
    18                                                      LEAP SECONDS        
                                                            END OF HEADER       
C10 2025  6  9  2  0  0 -1.43782235682D-05 -2.08153494441D-11  0.00000000000D+00
      1.00000000000D+00  7.00906250000D+02  1.18612083527D-09 -1.97907584884D+00
      2.29417346418D-05  1.06370970607D-02  4.89270314574D-06  6.49306880188D+03
      9.36000000000D+04  2.19326466322D-07  3.40368810870D-01 -1.53668224812D-07
      8.44752464222D-01  6.50000000000D+01 -2.45528773179D+00 -2.09544442653D-09
     -1.64292557730D-11  0.00000000000D+00  1.01400000000D+03  0.00000000000D+00
      9.65000000000D+00  0.00000000000D+00  6.10000000000D-09  3.00000000000D-09
      8.20202400000D+08  0.00000000000D+00  0.00000000000D+00  0.00000000000D+00
C11 2025  6  9  2  0  0 -3.66820371710D-04  1.64162017313D-11  0.00000000000D+00
      1.00000000000D+00  4.72812500000D+01  3.44407203085D-09  2.51789686296D+00
      2.37999483943D-06  1.84759730473D-03  3.83239239454D-07  5.28261085510D+03
      9.36000000000D+04 -3.25962901115D-09  1.06096183190D+00  2.98023223877D-08
      9.78507138819D-01  3.62109375000D+02 -1.59958438801D+00 -6.88064374929D-09
      1.44291724615D-10  0.00000000000D+00  1.01400000000D+03  0.00000000000D+00
      9.65000000000D+00  0.00000000000D+00  4.10000000000D-09  1.50000000000D-09
      8.20202400000D+08  0.00000000000D+00  0.00000000000D+00  0.00000000000D+00
C12 2025  6  9  2  0  0 -4.60011651739D-05  1.67981184518D-11  0.00000000000D+00
      1.00000000000D+00  5.02500000000D+01  3.53836167268D-09 -3.00582134642D+00
      2.47731804848D-06  9.36980708502D-04  3.66009771824D-07  5.28262590408D+03
      9.36000000000D+04 -3.91155481339D-08  1.04776406964D+00 -6.05359673500D-09
      9.76827865396D-01  3.63250000000D+02 -1.56218173912D+00 -6.92528846606D-09
      1.53577825704D-10  0.00000000000D+00  1.01400000000D+03  0.00000000000D+00
      9.65000000000D+00  0.00000000000D+00  3.30000000000D-09  0.00000000000D+00
      8.20202400000D+08  0.00000000000D+00  0.00000000000D+00  0.00000000000D+00
C13 2025  6  9  2  0  0 -3.06537840515D-05 -1.03463904111D-11  0.00000000000D+00
      1.00000000000D+00 -6.38953125000D+02  2.01436962087D-10  1.95727415333D+00
     -2.03810632229D-05  5.30821178108D-03  1.50874257088D-05  6.49310951042D+03
      9.36000000000D+04  5.02914190292D-08  2.53390822777D+00  5.44823706150D-08
      1.04240292253D+00 -1.95218750000D+02 -2.30219109605D+00 -1.49113354027D-09
      2.92869342041D-11  0.00000000000D+00  1.01400000000D+03  0.00000000000D+00
      9.65000000000D+00  0.00000000000D+00 -9.50000000000D-09  2.80000000000D-09
      8.20202400000D+08  0.00000000000D+00  0.00000000000D+00  0.00000000000D+00
C16 2025  6  9  2  0  0 -4.80900518596D-04 -3.60547147693D-11  0.00000000000D+00
      1.00000000000D+00 -8.19531250000D+01  1.80578950410D-09 -4.49890216762D-02
     -2.59513035417D-06  8.83043208160D-03  4.08897176385D-06  6.49366141319D+03
      9.36000000000D+04  8.33533704281D-08 -1.57659464795D+00 -1.49011611938D-07
      9.61700300598D-01  1.05296875000D+02 -2.16205881546D+00 -2.10115895028D-09
     -5.72166690182D-10  0.00000000000D+00  1.01400000000D+03  0.00000000000D+00
      9.65000000000D+00  0.00000000000D+00 -2.80000000000D-09  4.60000000000D-09
      8.20202400000D+08  0.00000000000D+00  0.00000000000D+00  0.00000000000D+00
C21 2025  6  9  2  0  0 -9.24375490285D-04 -4.45510295322D-12  0.00000000000D+00
      1.00000000000D+00 -5.44062500000D+01  3.28870841648D-09  2.58855723546D-01
     -2.60630622506D-06  8.04060138762D-04  1.02883204818D-05  5.28263565826D+03
      9.36000000000D+04 -4.00468707085D-08  3.12193857741D+00 -7.07805156708D-08
      9.83393185725D-01  1.68265625000D+02 -2.69894555197D-01 -6.35526472229D-09
      5.03949562951D-10  0.00000000000D+00  1.01400000000D+03  0.00000000000D+00
      9.65000000000D+00  0.00000000000D+00  1.15000000000D-08  1.15000000000D-08
      8.20202400000D+08  1.00000000000D+00  0.00000000000D+00  0.00000000000D+00
C22 2025  6  9  2  0  0  3.35359480232D-04  6.82565115540D-12  0.00000000000D+00
      1.00000000000D+00 -6.07187500000D+01  3.30120893717D-09  3.70776239016D-01
     -3.05101275444D-06  7.90080288425D-04  1.05621293187D-05  5.28263175964D+03
      9.36000000000D+04  6.89178705215D-08  3.12186581772D+00 -8.38190317154D-09
      9.83402611306D-01  1.63796875000D+02  3.97868852789D-01 -6.30097674669D-09
      4.97163566001D-10  0.00000000000D+00  1.01400000000D+03  0.00000000000D+00
      9.65000000000D+00  0.00000000000D+00  1.40000000000D-08  1.40000000000D-08
      8.20202400000D+08  1.00000000000D+00  0.00000000000D+00  0.00000000000D+00
C24 2025  6  9  2  0  0  4.72364248708D-04 -2.08046913031D-11  0.00000000000D+00
      1.00000000000D+00 -9.29687500000D+00  4.24696261733D-09  2.96002666065D+00
     -5.86267560720D-07  5.05008618347D-04  7.84592702985D-06  5.28263966751D+03
      9.36000000000D+04 -5.40167093277D-08 -1.07559227080D+00 -1.67638063431D-08
      9.43886895741D-01  1.89625000000D+02  5.08229212941D-01 -6.84528513360D-09
     -6.69670751618D-10  0.00000000000D+00  1.01400000000D+03  0.00000000000D+00
      9.65000000000D+00  0.00000000000D+00  4.20000000000D-09  4.20000000000D-09
      8.20202400000D+08  1.00000000000D+00  0.00000000000D+00  0.00000000000D+00
C25 2025  6  9  2  0  0  7.55726941861D-04  1.11937126235D-11  0.00000000000D+00
      1.00000000000D+00 -5.98437500000D+00  4.17553107049D-09  2.06759262867D+00
     -4.43309545517D-07  4.77494089864D-04  7.89342448115D-06  5.28266063881D+03
      9.36000000000D+04 -1.44354999065D-08 -1.09866647975D+00  2.51457095146D-08
      9.45445845614D-01  1.93281250000D+02  5.84235050066D-01 -6.76706758981D-09
     -6.29311927653D-10  0.00000000000D+00  1.01400000000D+03  0.00000000000D+00
      9.65000000000D+00  0.00000000000D+00  8.00000000000D-10  8.00000000000D-10
      8.20202400000D+08  1.00000000000D+00  0.00000000000D+00  0.00000000000D+00
C34 2025  6  9  2  0  0  7.09609012119D-04  8.02735655725D-12  0.00000000000D+00
      1.00000000000D+00  6.38906250000D+01  3.97373695067D-09  2.51845547384D-01
      3.24565917253D-06  6.12447154708D-04  5.00120222569D-07  5.28262166023D+03
      9.36000000000D+04 -5.58793544769D-08  9.84415818127D-01 -6.05359673500D-09
      9.49747983399D-01  3.46093750000D+02  1.07608635968D+00 -7.15351225821D-09
      1.38934358602D-10  0.00000000000D+00  1.01400000000D+03  0.00000000000D+00
      9.65000000000D+00  0.00000000000D+00 -5.90000000000D-09 -5.90000000000D-09
      8.20202400000D+08  1.00000000000D+00  0.00000000000D+00  0.00000000000D+00
C35 2025  6  9  2  0  0  1.39846233651D-05 -1.18260956583D-11  0.00000000000D+00
      1.00000000000D+00  7.59843750000D+01  4.12874340731D-09  2.06240256106D+00
      3.74717637897D-06  8.60027037561D-04  1.73691660166D-07  5.28261836433D+03
      9.36000000000D+04  1.53668224812D-08  9.84388384025D-01  3.39932739735D-08
      9.49821664731D-01  3.51875000000D+02  7.77984495411D-01 -7.27923178065D-09
      1.65006873199D-10  0.00000000000D+00  1.01400000000D+03  0.00000000000D+00
      9.65000000000D+00  0.00000000000D+00 -2.30000000000D-09 -2.30000000000D-09
      8.20202400000D+08  1.00000000000D+00  0.00000000000D+00  0.00000000000D+00
G01 2025  6  9  4  0  0  2.86091584712D-04  1.09139364213D-11  0.00000000000D+00
      2.14000000000D+02 -6.42812500000D+01  4.54947521819D-09  3.00935796112D+00
     -3.25590372086D-06  5.64158312045D-04  1.01327896118D-06  5.15372135735D+03
      1.00800000000D+05  3.53902578354D-08  1.61853376778D+00  3.72529029846D-08
      9.59181468730D-01  3.59812500000D+02  2.33671727788D-01 -8.40427864337D-09
     -8.82179603464D-11  0.00000000000D+00  2.37000000000D+03  0.00000000000D+00
      9.65000000000D+00  0.00000000000D+00 -8.84756445885D-09  2.14000000000D+02
      1.00800000000D+05  0.00000000000D+00  0.00000000000D+00  0.00000000000D+00
G03 2025  6  9  4  0  0  6.92982226610D-04  3.41060513165D-13  0.00000000000D+00
      1.72000000000D+02 -1.14437500000D+02  3.52371820558D-09  1.12860094649D+00
     -6.00889325142D-06  6.31442933809D-03  9.44361090660D-06  5.15377324104D+03
      1.00800000000D+05 -9.87201929092D-08  2.59742494015D+00  2.23517417908D-08
      9.90126949367D-01  2.11500000000D+02  1.17343580732D+00 -7.59603069088D-09
      1.09647424398D-10  0.00000000000D+00  2.37000000000D+03  0.00000000000D+00
      4.80000000000D+01  0.00000000000D+00  1.39698386192D-09  1.72000000000D+02
      1.00800000000D+05  0.00000000000D+00  0.00000000000D+00  0.00000000000D+00
G04 2025  6  9  4 14 40  5.76523598284D-04  4.43378667114D-12  0.00000000000D+00
      1.45000000000D+02  2.40625000000D+00  4.50625913235D-09 -2.09411064041D+00
     -8.38190317154D-08  3.29143984709D-03  8.30739736557D-06  5.15361020088D+03
      1.01680000000D+05  5.40167093277D-08 -2.61195694807D+00 -8.19563865662D-08
      9.68062096838D-01  2.26000000000D+02 -2.90973592730D+00 -7.79746765297D-09
      6.23240246172D-10  0.00000000000D+00  2.37000000000D+03  0.00000000000D+00
      9.65000000000D+00  0.00000000000D+00 -4.65661287308D-09  9.13000000000D+02
      1.01680000000D+05  0.00000000000D+00  0.00000000000D+00  0.00000000000D+00
